IRIDIUM 116             
1 43072U 17083C   23258.71109942  .00000830  00000+0  28915-3 0  9996
2 43072  86.4011  22.2214 0002012  97.4404 262.7021 14.34216358300059
IRIDIUM 130             
1 43073U 17083D   23258.74915946  .00000450  00000+0  15379-3 0  9997
2 43073  86.4020  22.3829 0002187  95.4441 264.7004 14.34219625300003
IRIDIUM 151             
1 43074U 17083E   23258.44471365  .00000396  00000+0  13437-3 0  9999
2 43074  86.4011  22.3673 0002127  99.3525 260.7912 14.34217826299980
IRIDIUM 134             
1 43075U 17083F   23258.41299906  .00000019  00000+0 -45539-6 0  9990
2 43075  86.4014  22.3749 0002069  89.9345 270.2088 14.34217820299948
IRIDIUM 137             
1 43076U 17083G   23258.42568448  .00000466  00000+0  15950-3 0  9998
2 43076  86.4016  22.4427 0001967 101.1459 258.9958 14.34219848300016
IRIDIUM 141             
1 43077U 17083H   23258.41934115  .00000390  00000+0  13232-3 0  9993
2 43077  86.4006  22.3321 0002386  97.5740 262.5726 14.34215820300015
IRIDIUM 153             
1 43078U 17083J   23258.30175471  .00000531  00000+0  18254-3 0  9990
2 43078  86.4032 350.8576 0002520  92.4540 267.6944 14.34220648301101
IRIDIUM 131             
1 43079U 17083K   23258.40666087  .00000482  00000+0  16504-3 0  9991
2 43079  86.4016  22.4567 0002204  94.0411 266.1037 14.34219456299940
